STARLINK-35885          
1 66890U 25283N   26003.25002315 -.02034538  00000+0 -48787-1 0  9999
2 66890  53.1596 328.2744 0001299  94.3385 240.6793 15.44352301  5883
STARLINK-35855          
1 66891U 25283P   26003.25002315 -.02048383  00000+0 -47399-1 0  9991
2 66891  53.1594 328.2632 0001006 105.0241 235.6321 15.45414589  5884
STARLINK-35883          
1 66892U 25283Q   26003.25002315 -.02047663  00000+0 -45724-1 0  9992
2 66892  53.1594 328.2530 0001275  99.0064 246.3270 15.46437803  5826
STARLINK-36033          
1 66893U 25283R   26003.25002315 -.00667327  00000+0 -23980-1 0  9996
2 66893  53.1596 328.5054 0001058  88.4976 129.5392 15.30600374  5887
STARLINK-35718          
1 66894U 25283S   26003.31601379 -.00274661  00000+0 -52068-2 0  9994
2 66894  53.1606 327.9245 0001391 174.4743 185.6282 15.48751797  5834
STARLINK-35971          
1 66895U 25283T   26003.25002315 -.02083511  00000+0 -68129-1 0  9991
2 66895  53.1588 328.4031 0001655  98.8523 170.1195 15.34513025  5883
STARLINK-35791          
1 66896U 25283U   26003.12204324  .00145154  00000+0  25669-2 0  9993
2 66896  53.1597 328.8443 0001128  68.4659 291.6470 15.49340331  5804
STARLINK-36079          
1 66897U 25283V   26003.25002315 -.02054558  00000+0 -66967-1 0  9990
2 66897  53.1593 328.3978 0001567  89.4356 182.2281 15.34567150  5880
STARLINK-36065          
1 66898U 25283W   26003.25002315 -.01994750  00000+0 -60458-1 0  9996
2 66898  53.1590 328.3360 0001513  96.8797 205.8629 15.37281780  5888
STARLINK-36064          
1 66899U 25283X   26003.25002315 -.02007065  00000+0 -59650-1 0  9994
2 66899  53.1589 328.3207 0001341 100.4882 209.9346 15.37905157  5829
STARLINK-36074          
1 66900U 25283Y   26003.25002315 -.02001856  00000+0 -59423-1 0  9997
2 66900  53.1593 328.3159 0001496  92.7049 219.8774 15.37930889  5883
STARLINK-36043          
1 66901U 25283Z   26003.25002315 -.02028635  00000+0 -54520-1 0  9995
2 66901  53.1595 328.2641 0001130  94.7313 243.5724 15.40980622  5885
