CCSDS_OMM_VERS = 2.0
CREATION_DATE  = 
ORIGINATOR     = 

OBJECT_NAME    = STARLINK-35885
OBJECT_ID      = 2025-283N
CENTER_NAME    = EARTH
REF_FRAME      = TEME
TIME_SYSTEM    = UTC
MEAN_ELEMENT_THEORY = SGP/SGP4

EPOCH          = 2026-01-03T06:00:02.000160
MEAN_MOTION    = 15.44352301
ECCENTRICITY   = .00012994
INCLINATION    = 53.1596
RA_OF_ASC_NODE = 328.2744
ARG_OF_PERICENTER = 94.3385
MEAN_ANOMALY   = 240.6793

EPHEMERIS_TYPE = 0
CLASSIFICATION_TYPE = U
NORAD_CAT_ID   = 66890
ELEMENT_SET_NO = 999
REV_AT_EPOCH   = 588
BSTAR          = -.4878704E-1
MEAN_MOTION_DOT = -.2034538E-1
MEAN_MOTION_DDOT = 0

CCSDS_OMM_VERS = 2.0
CREATION_DATE  = 
ORIGINATOR     = 

OBJECT_NAME    = STARLINK-35855
OBJECT_ID      = 2025-283P
CENTER_NAME    = EARTH
REF_FRAME      = TEME
TIME_SYSTEM    = UTC
MEAN_ELEMENT_THEORY = SGP/SGP4

EPOCH          = 2026-01-03T06:00:02.000160
MEAN_MOTION    = 15.45414589
ECCENTRICITY   = .00010068
INCLINATION    = 53.1594
RA_OF_ASC_NODE = 328.2632
ARG_OF_PERICENTER = 105.0241
MEAN_ANOMALY   = 235.6321

EPHEMERIS_TYPE = 0
CLASSIFICATION_TYPE = U
NORAD_CAT_ID   = 66891
ELEMENT_SET_NO = 999
REV_AT_EPOCH   = 588
BSTAR          = -.47399026E-1
MEAN_MOTION_DOT = -.2048383E-1
MEAN_MOTION_DDOT = 0

CCSDS_OMM_VERS = 2.0
CREATION_DATE  = 
ORIGINATOR     = 

OBJECT_NAME    = STARLINK-35883
OBJECT_ID      = 2025-283Q
CENTER_NAME    = EARTH
REF_FRAME      = TEME
TIME_SYSTEM    = UTC
MEAN_ELEMENT_THEORY = SGP/SGP4

EPOCH          = 2026-01-03T06:00:02.000160
MEAN_MOTION    = 15.46437803
ECCENTRICITY   = .00012757
INCLINATION    = 53.1594
RA_OF_ASC_NODE = 328.2530
ARG_OF_PERICENTER = 99.0064
MEAN_ANOMALY   = 246.3270

EPHEMERIS_TYPE = 0
CLASSIFICATION_TYPE = U
NORAD_CAT_ID   = 66892
ELEMENT_SET_NO = 999
REV_AT_EPOCH   = 582
BSTAR          = -.45724369E-1
MEAN_MOTION_DOT = -.2047663E-1
MEAN_MOTION_DDOT = 0

CCSDS_OMM_VERS = 2.0
CREATION_DATE  = 
ORIGINATOR     = 

OBJECT_NAME    = STARLINK-36033
OBJECT_ID      = 2025-283R
CENTER_NAME    = EARTH
REF_FRAME      = TEME
TIME_SYSTEM    = UTC
MEAN_ELEMENT_THEORY = SGP/SGP4

EPOCH          = 2026-01-03T06:00:02.000160
MEAN_MOTION    = 15.30600374
ECCENTRICITY   = .00010582
INCLINATION    = 53.1596
RA_OF_ASC_NODE = 328.5054
ARG_OF_PERICENTER = 88.4976
MEAN_ANOMALY   = 129.5392

EPHEMERIS_TYPE = 0
CLASSIFICATION_TYPE = U
NORAD_CAT_ID   = 66893
ELEMENT_SET_NO = 999
REV_AT_EPOCH   = 588
BSTAR          = -.23980232E-1
MEAN_MOTION_DOT = -.667327E-2
MEAN_MOTION_DDOT = 0

CCSDS_OMM_VERS = 2.0
CREATION_DATE  = 
ORIGINATOR     = 

OBJECT_NAME    = STARLINK-35718
OBJECT_ID      = 2025-283S
CENTER_NAME    = EARTH
REF_FRAME      = TEME
TIME_SYSTEM    = UTC
MEAN_ELEMENT_THEORY = SGP/SGP4

EPOCH          = 2026-01-03T07:35:03.591456
MEAN_MOTION    = 15.48751797
ECCENTRICITY   = .00013914
INCLINATION    = 53.1606
RA_OF_ASC_NODE = 327.9245
ARG_OF_PERICENTER = 174.4743
MEAN_ANOMALY   = 185.6282

EPHEMERIS_TYPE = 0
CLASSIFICATION_TYPE = U
NORAD_CAT_ID   = 66894
ELEMENT_SET_NO = 999
REV_AT_EPOCH   = 583
BSTAR          = -.52067861E-2
MEAN_MOTION_DOT = -.274661E-2
MEAN_MOTION_DDOT = 0

CCSDS_OMM_VERS = 2.0
CREATION_DATE  = 
ORIGINATOR     = 

OBJECT_NAME    = STARLINK-35971
OBJECT_ID      = 2025-283T
CENTER_NAME    = EARTH
REF_FRAME      = TEME
TIME_SYSTEM    = UTC
MEAN_ELEMENT_THEORY = SGP/SGP4

EPOCH          = 2026-01-03T06:00:02.000160
MEAN_MOTION    = 15.34513025
ECCENTRICITY   = .00016552
INCLINATION    = 53.1588
RA_OF_ASC_NODE = 328.4031
ARG_OF_PERICENTER = 98.8523
MEAN_ANOMALY   = 170.1195

EPHEMERIS_TYPE = 0
CLASSIFICATION_TYPE = U
NORAD_CAT_ID   = 66895
ELEMENT_SET_NO = 999
REV_AT_EPOCH   = 588
BSTAR          = -.68129014E-1
MEAN_MOTION_DOT = -.2083511E-1
MEAN_MOTION_DDOT = 0

CCSDS_OMM_VERS = 2.0
CREATION_DATE  = 
ORIGINATOR     = 

OBJECT_NAME    = STARLINK-35791
OBJECT_ID      = 2025-283U
CENTER_NAME    = EARTH
REF_FRAME      = TEME
TIME_SYSTEM    = UTC
MEAN_ELEMENT_THEORY = SGP/SGP4

EPOCH          = 2026-01-03T02:55:44.535936
MEAN_MOTION    = 15.49340331
ECCENTRICITY   = .00011284
INCLINATION    = 53.1597
RA_OF_ASC_NODE = 328.8443
ARG_OF_PERICENTER = 68.4659
MEAN_ANOMALY   = 291.6470

EPHEMERIS_TYPE = 0
CLASSIFICATION_TYPE = U
NORAD_CAT_ID   = 66896
ELEMENT_SET_NO = 999
REV_AT_EPOCH   = 580
BSTAR          = .25668937E-2
MEAN_MOTION_DOT = .145154E-2
MEAN_MOTION_DDOT = 0

CCSDS_OMM_VERS = 2.0
CREATION_DATE  = 
ORIGINATOR     = 

OBJECT_NAME    = STARLINK-36079
OBJECT_ID      = 2025-283V
CENTER_NAME    = EARTH
REF_FRAME      = TEME
TIME_SYSTEM    = UTC
MEAN_ELEMENT_THEORY = SGP/SGP4

EPOCH          = 2026-01-03T06:00:02.000160
MEAN_MOTION    = 15.34567150
ECCENTRICITY   = .00015676
INCLINATION    = 53.1593
RA_OF_ASC_NODE = 328.3978
ARG_OF_PERICENTER = 89.4356
MEAN_ANOMALY   = 182.2281

EPHEMERIS_TYPE = 0
CLASSIFICATION_TYPE = U
NORAD_CAT_ID   = 66897
ELEMENT_SET_NO = 999
REV_AT_EPOCH   = 588
BSTAR          = -.66967387E-1
MEAN_MOTION_DOT = -.2054558E-1
MEAN_MOTION_DDOT = 0

CCSDS_OMM_VERS = 2.0
CREATION_DATE  = 
ORIGINATOR     = 

OBJECT_NAME    = STARLINK-36065
OBJECT_ID      = 2025-283W
CENTER_NAME    = EARTH
REF_FRAME      = TEME
TIME_SYSTEM    = UTC
MEAN_ELEMENT_THEORY = SGP/SGP4

EPOCH          = 2026-01-03T06:00:02.000160
MEAN_MOTION    = 15.37281780
ECCENTRICITY   = .00015135
INCLINATION    = 53.1590
RA_OF_ASC_NODE = 328.3360
ARG_OF_PERICENTER = 96.8797
MEAN_ANOMALY   = 205.8629

EPHEMERIS_TYPE = 0
CLASSIFICATION_TYPE = U
NORAD_CAT_ID   = 66898
ELEMENT_SET_NO = 999
REV_AT_EPOCH   = 588
BSTAR          = -.60457791E-1
MEAN_MOTION_DOT = -.199475E-1
MEAN_MOTION_DDOT = 0

CCSDS_OMM_VERS = 2.0
CREATION_DATE  = 
ORIGINATOR     = 

OBJECT_NAME    = STARLINK-36064
OBJECT_ID      = 2025-283X
CENTER_NAME    = EARTH
REF_FRAME      = TEME
TIME_SYSTEM    = UTC
MEAN_ELEMENT_THEORY = SGP/SGP4

EPOCH          = 2026-01-03T06:00:02.000160
MEAN_MOTION    = 15.37905157
ECCENTRICITY   = .00013415
INCLINATION    = 53.1589
RA_OF_ASC_NODE = 328.3207
ARG_OF_PERICENTER = 100.4882
MEAN_ANOMALY   = 209.9346

EPHEMERIS_TYPE = 0
CLASSIFICATION_TYPE = U
NORAD_CAT_ID   = 66899
ELEMENT_SET_NO = 999
REV_AT_EPOCH   = 582
BSTAR          = -.59649738E-1
MEAN_MOTION_DOT = -.2007065E-1
MEAN_MOTION_DDOT = 0

CCSDS_OMM_VERS = 2.0
CREATION_DATE  = 
ORIGINATOR     = 

OBJECT_NAME    = STARLINK-36074
OBJECT_ID      = 2025-283Y
CENTER_NAME    = EARTH
REF_FRAME      = TEME
TIME_SYSTEM    = UTC
MEAN_ELEMENT_THEORY = SGP/SGP4

EPOCH          = 2026-01-03T06:00:02.000160
MEAN_MOTION    = 15.37930889
ECCENTRICITY   = .00014963
INCLINATION    = 53.1593
RA_OF_ASC_NODE = 328.3159
ARG_OF_PERICENTER = 92.7049
MEAN_ANOMALY   = 219.8774

EPHEMERIS_TYPE = 0
CLASSIFICATION_TYPE = U
NORAD_CAT_ID   = 66900
ELEMENT_SET_NO = 999
REV_AT_EPOCH   = 588
BSTAR          = -.59422885E-1
MEAN_MOTION_DOT = -.2001856E-1
MEAN_MOTION_DDOT = 0

CCSDS_OMM_VERS = 2.0
CREATION_DATE  = 
ORIGINATOR     = 

OBJECT_NAME    = STARLINK-36043
OBJECT_ID      = 2025-283Z
CENTER_NAME    = EARTH
REF_FRAME      = TEME
TIME_SYSTEM    = UTC
MEAN_ELEMENT_THEORY = SGP/SGP4

EPOCH          = 2026-01-03T06:00:02.000160
MEAN_MOTION    = 15.40980622
ECCENTRICITY   = .00011309
INCLINATION    = 53.1595
RA_OF_ASC_NODE = 328.2641
ARG_OF_PERICENTER = 94.7313
MEAN_ANOMALY   = 243.5724

EPHEMERIS_TYPE = 0
CLASSIFICATION_TYPE = U
NORAD_CAT_ID   = 66901
ELEMENT_SET_NO = 999
REV_AT_EPOCH   = 588
BSTAR          = -.54519793E-1
MEAN_MOTION_DOT = -.2028635E-1
MEAN_MOTION_DDOT = 0

